{
    "links": {
        "self": "http://www.neowsapp.com/rest/v1/neo/3748561?api_key=iIulBulltgU6a56xZRHN4H3l9WmuAYTsLGpBGhQ2"
    },
    "id": "3748561",
    "neo_reference_id": "3748561",
    "name": "(2016 GG1)",
    "designation": "2016 GG1",
    "nasa_jpl_url": "http://ssd.jpl.nasa.gov/sbdb.cgi?sstr=3748561",
    "absolute_magnitude_h": 26.6,
    "estimated_diameter": {
        "kilometers": {
            "estimated_diameter_min": 0.0127219879,
            "estimated_diameter_max": 0.0284472297
        },
        "meters": {
            "estimated_diameter_min": 12.7219878539,
            "estimated_diameter_max": 28.4472296503
        },
        "miles": {
            "estimated_diameter_min": 0.0079050743,
            "estimated_diameter_max": 0.0176762835
        },
        "feet": {
            "estimated_diameter_min": 41.7388066307,
            "estimated_diameter_max": 93.330808926
        }
    },
    "is_potentially_hazardous_asteroid": false,
    "close_approach_data": [
        {
            "close_approach_date": "2014-02-25",
            "close_approach_date_full": "2014-Feb-25 11:28",
            "epoch_date_close_approach": 1393327680000,
            "relative_velocity": {
                "kilometers_per_second": "11.7870946022",
                "kilometers_per_hour": "42433.5405678512",
                "miles_per_hour": "26366.5519156185"
            },
            "miss_distance": {
                "astronomical": "0.248669011",
                "lunar": "96.732245279",
                "kilometers": "37200354.38060657",
                "miles": "23115228.344727866"
            },
            "orbiting_body": "Earth"
        },
        {
            "close_approach_date": "2016-04-02",
            "close_approach_date_full": "2016-Apr-02 20:42",
            "epoch_date_close_approach": 1459629720000,
            "relative_velocity": {
                "kilometers_per_second": "5.6271517896",
                "kilometers_per_hour": "20257.7464425271",
                "miles_per_hour": "12587.3758381358"
            },
            "miss_distance": {
                "astronomical": "0.0313074605",
                "lunar": "12.1786021345",
                "kilometers": "4683529.405909135",
                "miles": "2910210.224590663"
            },
            "orbiting_body": "Earth"
        },
        {
            "close_approach_date": "2018-05-12",
            "close_approach_date_full": "2018-May-12 22:58",
            "epoch_date_close_approach": 1526165880000,
            "relative_velocity": {
                "kilometers_per_second": "12.1950688887",
                "kilometers_per_hour": "43902.2479994784",
                "miles_per_hour": "27279.1495972315"
            },
            "miss_distance": {
                "astronomical": "0.2648290603",
                "lunar": "103.0185044567",
                "kilometers": "39617863.334981561",
                "miles": "24617398.7524091018"
            },
            "orbiting_body": "Earth"
        },
        {
            "close_approach_date": "2200-05-25",
            "close_approach_date_full": "2200-May-25 14:05",
            "epoch_date_close_approach": 7270610700000,
            "relative_velocity": {
                "kilometers_per_second": "15.7613958356",
                "kilometers_per_hour": "56741.0250080192",
                "miles_per_hour": "35256.6663445662"
            },
            "miss_distance": {
                "astronomical": "0.3850800007",
                "lunar": "149.7961202723",
                "kilometers": "57607147.884318509",
                "miles": "35795421.8395490642"
            },
            "orbiting_body": "Earth"
        }
    ],
    "orbital_data": {
        "orbit_id": "10",
        "orbit_determination_date": "2018-02-10 07:07:50",
        "first_observation_date": "2016-04-02",
        "last_observation_date": "2016-04-17",
        "data_arc_in_days": 15,
        "observations_used": 50,
        "orbit_uncertainty": "7",
        "minimum_orbit_intersection": ".0310441",
        "jupiter_tisserand_invariant": "4.261",
        "epoch_osculation": "2459000.5",
        "eccentricity": ".3606145575312173",
        "semi_major_axis": "1.611511288548002",
        "inclination": "6.197889335373107",
        "ascending_node_longitude": "190.114591521446",
        "orbital_period": "747.2199437741731",
        "perihelion_distance": "1.030376858271702",
        "perihelion_argument": "359.9382648964821",
        "aphelion_distance": "2.192645718824301",
        "perihelion_time": "2458972.647214017593",
        "mean_anomaly": "13.41907832788921",
        "mean_motion": ".4817858556901691",
        "equinox": "J2000",
        "orbit_class": {
            "orbit_class_type": "AMO",
            "orbit_class_description": "Near-Earth asteroid orbits similar to that of 1221 Amor",
            "orbit_class_range": "1.017 AU < q (perihelion) < 1.3 AU"
        }
    },
    "is_sentry_object": false
}